CZ-2D R/B               
1 28738U 05024B   26062.99992175  .00056390  00000+0  70720-3 0  9997
2 28738  97.3594  77.9392 0006723  61.1543 299.0388 15.59546967138897
ALOS (DAICHI)           
1 28931U 06002A   26062.85251545  .00001943  00000+0  33385-3 0  9993
2 28931  98.1208  18.8377 0001133  51.0197 309.1109 14.69787621 72629
H-2A R/B                
1 28932U 06002B   26062.40614913  .00011806  00000+0  59324-3 0  9997
2 28932  98.2397 208.8910 0051915 262.6569  96.8760 15.16255084 93486
RESURS-DK 1             
1 29228U 06021A   26062.91484494  .00003579  00000+0  21006-3 0  9996
2 29228  69.9304 251.9622 0002432 165.6205 194.5031 15.12697372 86650
CZ-4B R/B               
1 29507U 06046C   26062.93604238  .00007270  00000+0  36843-3 0  9992
2 29507  97.5603 107.8601 0031735 288.2223  71.5557 15.16833499 59175
CZ-2C R/B               
1 31114U 07010B   26062.80807493  .00000166  00000+0  95334-4 0  9993
2 31114  98.3977 176.3819 0058052 312.0258  47.5986 14.20243790978882
COSMO-SKYMED 1          
1 31598U 07023A   26062.98106914  .00004686  00000+0  41786-3 0  9994
2 31598  97.8861 253.9680 0000811  89.8180 270.3134 14.96480826 14052
COSMOS 2428             
1 31792U 07029A   26062.80032069  .00000068  00000+0  62227-4 0  9990
2 31792  70.9422 215.7044 0008790 283.2817  76.7324 14.12944514963266
SL-16 R/B               
1 31793U 07029B   26062.77530315 -.00000153  00000+0 -54637-4 0  9997
2 31793  70.9756 184.8160 0002426 278.0929 189.2811 14.14833889964534
KORONAS-FOTON           
1 33504U 09003A   26062.92863428  .00018048  00000+0  40540-3 0  9991
2 33504  82.4281 281.8683 0010829 169.2075 190.9407 15.43162786944851
CZ-2C R/B               
1 37731U 11030B   26062.80188186  .00002427  00000+0  31136-3 0  9993
2 37731  97.8533  20.1831 0052966  11.2331  47.6410 14.81194075789222
H-2A R/B                
1 38341U 12025E   26062.83929232  .00005533  00000+0  50126-3 0  9995
2 38341  98.4716  29.4170 0043885 333.6566  26.2421 14.95104186747340
SHIJIAN-16 (SJ-16)      
1 39358U 13057A   26062.93066418  .00001228  00000+0  12275-3 0  9999
2 39358  74.9731 195.9885 0015696 127.7669 232.4944 14.92309579670641
SL-4 R/B                
1 39679U 14021B   26062.20064179  .00018805  00000+0  41513-3 0  9995
2 39679  51.6082   8.9286 0098097  79.3446 281.8567 15.38921077655272
ALOS-2                  
1 39766U 14029A   26062.90246994  .00001663  00000+0  22945-3 0  9996
2 39766  97.9203 161.5837 0001513  99.7980 260.3402 14.79474078636010
YAOGAN-29               
1 41038U 15069A   26062.99186073  .00000401  00000+0  56023-4 0  9990
2 41038  98.0149  91.4057 0002238  45.8820 314.2577 14.82987923555037
ASTRO-H (HITOMI)        
1 41337U 16012A   26062.94917524  .00005095  00000+0  30032-3 0  9994
2 41337  31.0005  33.5896 0010021 274.0710  85.8782 15.09956028551361
